[{"OBJECT_NAME":"TIANQI-6","OBJECT_ID":"2020-076D","EPOCH":"2026-03-09T22:50:24.728640","MEAN_MOTION":15.06417552,"ECCENTRICITY":0.00106023,"INCLINATION":34.9994,"RA_OF_ASC_NODE":297.1791,"ARG_OF_PERICENTER":9.4595,"MEAN_ANOMALY":350.6312,"EPHEMERIS_TYPE":0,"CLASSIFICATION_TYPE":"U","NORAD_CAT_ID":46810,"ELEMENT_SET_NO":999,"REV_AT_EPOCH":29360,"BSTAR":0.00037023286,"MEAN_MOTION_DOT":5.552e-5,"MEAN_MOTION_DDOT":0},{"OBJECT_NAME":"STARLINK-4067","OBJECT_ID":"2022-053N","EPOCH":"2026-03-09T11:12:07.241472","MEAN_MOTION":15.08830839,"ECCENTRICITY":0.00013368,"INCLINATION":53.2172,"RA_OF_ASC_NODE":155.1239,"ARG_OF_PERICENTER":78.69,"MEAN_ANOMALY":281.4243,"EPHEMERIS_TYPE":0,"CLASSIFICATION_TYPE":"U","NORAD_CAT_ID":52668,"ELEMENT_SET_NO":999,"REV_AT_EPOCH":21101,"BSTAR":0.00011970545,"MEAN_MOTION_DOT":1.617e-5,"MEAN_MOTION_DDOT":0}]
